SPACEBEE-7              
1 43816U 18099BL  25110.59256537  .00040158  00000+0  12595-2 0  9991
2 43816  97.4991 179.9968 0005095 282.5679  77.4993 15.32928210349132
